[{"OBJECT_NAME":"MINXSS-2","OBJECT_ID":"2018-099A","EPOCH":"2026-03-09T17:11:43.411488","MEAN_MOTION":15.40332084,"ECCENTRICITY":0.00075705,"INCLINATION":97.4625,"RA_OF_ASC_NODE":142.5474,"ARG_OF_PERICENTER":258.6187,"MEAN_ANOMALY":101.4208,"EPHEMERIS_TYPE":0,"CLASSIFICATION_TYPE":"U","NORAD_CAT_ID":43758,"ELEMENT_SET_NO":999,"REV_AT_EPOCH":39878,"BSTAR":0.00078488762,"MEAN_MOTION_DOT":0.00031693,"MEAN_MOTION_DDOT":0},{"OBJECT_NAME":"AEROCUBE 16B","OBJECT_ID":"2024-053D","EPOCH":"2026-03-08T13:18:31.603680","MEAN_MOTION":15.40573981,"ECCENTRICITY":0.00037566,"INCLINATION":49.9908,"RA_OF_ASC_NODE":115.4511,"ARG_OF_PERICENTER":293.4512,"MEAN_ANOMALY":66.6055,"EPHEMERIS_TYPE":0,"CLASSIFICATION_TYPE":"U","NORAD_CAT_ID":59291,"ELEMENT_SET_NO":999,"REV_AT_EPOCH":10565,"BSTAR":0.00056476312,"MEAN_MOTION_DOT":0.00023043,"MEAN_MOTION_DDOT":0}]
