MINXSS-2                
1 43758U 18099A   26068.71647466  .00031693  00000+0  78489-3 0  9997
2 43758  97.4625 142.5474 0007571 258.6187 101.4208 15.40332084398787
AEROCUBE 16B            
1 59291U 24053D   26067.55453245  .00023043  00000+0  56476-3 0  9996
2 59291  49.9908 115.4511 0003756 293.4512  66.6055 15.40573981105650
